GPS_BIIF-3 -PRN-24
1 38833U 12053A   23124.07079210  .00000060  00000+0  00000+0 0  9998
2 38833  53.5120 190.2308 0136448  50.4889 310.7922  2.00565366 76578
